IRIDIUM 26              
1 24903U 97043A   25044.73223429  .00000794  00000+0  26155-3 0  9999
2 24903  86.4024 162.4480 0002245 100.0440 260.1011 14.36970745439015
IRIDIUM 22              
1 24907U 97043E   25044.56082985  .00000734  00000+0  24717-3 0  9990
2 24907  86.4029 165.9471 0002074  94.4545 265.6889 14.35803484439033
DUMMY MASS 1            
1 24925U 97048A   25044.92523828  .00000942  00000+0  10265-3 0  9995
2 24925  86.3384 192.2628 0005341 205.5302 154.5660 14.86791646486812
DUMMY MASS 2            
1 24926U 97048B   25044.46300340  .00000890  00000+0  97438-4 0  9997
2 24926  86.3381 194.0593 0005679 224.0331 136.0442 14.86543876486524
IRIDIUM 29              
1 24944U 97051A   25044.69615007  .00000863  00000+0  28880-3 0  9999
2 24944  86.3993 195.6327 0001881  88.8304 271.3109 14.36276453435540
IRIDIUM 33              
1 24946U 97051C   25044.96297641  .00000599  00000+0  20454-3 0  9996
2 24946  86.3911 194.7720 0009705 115.0795 245.1409 14.34761572435078
IRIDIUM 28              
1 24948U 97051E   25044.95838182  .00000793  00000+0  26006-3 0  9993
2 24948  86.4004 193.1112 0002406  99.4070 260.7399 14.37212377436141
IRIDIUM 36              
1 24967U 97056C   25045.00951083  .00000882  00000+0  28862-3 0  9993
2 24967  86.3948 224.6907 0002261  88.2819 271.8637 14.37408906434529
